[{"OBJECT_NAME":"STARLINK-31889","OBJECT_ID":"2024-097N","EPOCH":"2026-03-09T19:57:55.225152","MEAN_MOTION":15.2757221,"ECCENTRICITY":0.0001549,"INCLINATION":43.0011,"RA_OF_ASC_NODE":273.9797,"ARG_OF_PERICENTER":270.9288,"MEAN_ANOMALY":89.1386,"EPHEMERIS_TYPE":0,"CLASSIFICATION_TYPE":"U","NORAD_CAT_ID":59847,"ELEMENT_SET_NO":999,"REV_AT_EPOCH":10193,"BSTAR":5.134685e-6,"MEAN_MOTION_DOT":-1.21e-6,"MEAN_MOTION_DDOT":0},{"OBJECT_NAME":"TEVEL2-9","OBJECT_ID":"2025-052AD","EPOCH":"2026-03-09T16:51:18.321696","MEAN_MOTION":15.28633834,"ECCENTRICITY":0.000799,"INCLINATION":97.4057,"RA_OF_ASC_NODE":324.3929,"ARG_OF_PERICENTER":124.2475,"MEAN_ANOMALY":235.9522,"EPHEMERIS_TYPE":0,"CLASSIFICATION_TYPE":"U","NORAD_CAT_ID":63237,"ELEMENT_SET_NO":999,"REV_AT_EPOCH":5481,"BSTAR":0.00067240159,"MEAN_MOTION_DOT":0.00018694,"MEAN_MOTION_DDOT":0}]
