STARLINK-31889          
1 59847U 24097N   26068.83188917 -.00000121  00000+0  51347-5 0  9991
2 59847  43.0011 273.9797 0001549 270.9288  89.1386 15.27572210101934
TEVEL2-9                
1 63237U 25052AD  26068.70229538  .00018694  00000+0  67240-3 0  9992
2 63237  97.4057 324.3929 0007990 124.2475 235.9522 15.28633834 54816
